STARLINK-37148          
1 68310U 26057S   26097.25003472  .00131207  00000+0  67714-3 0  9996
2 68310  97.2844 221.0713 0001667  73.5866  81.9624 15.80761585  3857
STARLINK-37140          
1 68311U 26057T   26097.25003472  .00140047  00000+0  72196-3 0  9999
2 68311  97.2843 221.0710 0001486  62.6083  88.6661 15.80762497  4010
STARLINK-36854          
1 68312U 26057U   26097.25003472  .00167837  00000+0  86273-3 0  9997
2 68312  97.2844 221.0738 0001729  99.3885  60.4358 15.80751487  3803
STARLINK-36815          
1 68313U 26057V   26097.25003472  .00110351  00000+0  57056-3 0  9994
2 68313  97.2844 221.0763 0001517  56.7947 107.2990 15.80778150  3801
STARLINK-37155          
1 68314U 26057W   26097.25003472  .00127374  00000+0  65743-3 0  9990
2 68314  97.2846 221.0794 0001955  70.7685 101.8823 15.80769037  3853
STARLINK-37150          
1 68315U 26057X   26097.25003472  .00118393  00000+0  61216-3 0  9993
2 68315  97.2845 221.0766 0001169  64.7558 103.6196 15.80755695  3859
STARLINK-37154          
1 68316U 26057Y   26097.25003472  .00028879  00000+0  15103-3 0  9997
2 68316  97.2848 221.0820 0001926  59.8051 121.3821 15.80811932  3756
STARLINK-37139          
1 68317U 26057Z   26097.25003472  .00013418  00000+0  70672-4 0  9994
2 68317  97.2838 221.0799 0001486  70.4561 106.4617 15.80819386  3609
STARLINK-37113          
1 68318U 26057AA  26097.25003472  .00195716  00000+0  10036-2 0  9993
2 68318  97.2850 221.0841 0001579 106.4912  78.9831 15.80731408  3851
PROGRESS-MS 33          
1 68319U 26058A   26097.03736053  .00008175  00000+0  15735-3 0  9993
2 68319  51.6332 292.2025 0006343 281.0633  78.9642 15.48812043  2240
STARLINK-36987          
1 68321U 26059A   26097.20489439  .00182985  00000+0  91044-3 0  9998
2 68321  53.1591 219.9843 0000831  21.0842 339.0215 15.80889004  2481
STARLINK-37088          
1 68322U 26059B   26097.20339152  .00189727  00000+0  94241-3 0  9998
2 68322  53.1589 219.9742 0001012  50.9186 309.1926 15.80905321  2489
STARLINK-36983          
1 68323U 26059C   26097.20414148  .00200204  00000+0  99238-3 0  9993
2 68323  53.1591 219.9794 0000938  71.2792 288.8333 15.80919978  2483
STARLINK-37164          
1 68324U 26059D   26097.13942752  .00590758  00000+0  27689-2 0  9999
2 68324  53.1588 220.2859 0000703 112.3066 247.8032 15.81088501  3604
STARLINK-36309          
1 68325U 26059E   26097.20189178  .00212044  00000+0  10497-2 0  9991
2 68325  53.1589 219.9645 0001513  14.7285 345.3782 15.80914453  2486
STARLINK-37206          
1 68326U 26059F   26097.20114058  .00176687  00000+0  87941-3 0  9998
2 68326  53.1589 219.9590 0001130  61.4881 298.6255 15.80900574  2486
