[{"OBJECT_NAME":"STARLINK-37148","OBJECT_ID":"2026-057S","EPOCH":"2026-04-07T06:00:02.999808","MEAN_MOTION":15.80761585,"ECCENTRICITY":0.00016671,"INCLINATION":97.2844,"RA_OF_ASC_NODE":221.0713,"ARG_OF_PERICENTER":73.5866,"MEAN_ANOMALY":81.9624,"EPHEMERIS_TYPE":0,"CLASSIFICATION_TYPE":"U","NORAD_CAT_ID":68310,"ELEMENT_SET_NO":999,"REV_AT_EPOCH":385,"BSTAR":0.00067714262,"MEAN_MOTION_DOT":0.00131207,"MEAN_MOTION_DDOT":0},{"OBJECT_NAME":"STARLINK-37140","OBJECT_ID":"2026-057T","EPOCH":"2026-04-07T06:00:02.999808","MEAN_MOTION":15.80762497,"ECCENTRICITY":0.00014868,"INCLINATION":97.2843,"RA_OF_ASC_NODE":221.071,"ARG_OF_PERICENTER":62.6083,"MEAN_ANOMALY":88.6661,"EPHEMERIS_TYPE":0,"CLASSIFICATION_TYPE":"U","NORAD_CAT_ID":68311,"ELEMENT_SET_NO":999,"REV_AT_EPOCH":401,"BSTAR":0.00072196064,"MEAN_MOTION_DOT":0.00140047,"MEAN_MOTION_DDOT":0},{"OBJECT_NAME":"STARLINK-36854","OBJECT_ID":"2026-057U","EPOCH":"2026-04-07T06:00:02.999808","MEAN_MOTION":15.80751487,"ECCENTRICITY":0.00017292,"INCLINATION":97.2844,"RA_OF_ASC_NODE":221.0738,"ARG_OF_PERICENTER":99.3885,"MEAN_ANOMALY":60.4358,"EPHEMERIS_TYPE":0,"CLASSIFICATION_TYPE":"U","NORAD_CAT_ID":68312,"ELEMENT_SET_NO":999,"REV_AT_EPOCH":380,"BSTAR":0.00086272965,"MEAN_MOTION_DOT":0.00167837,"MEAN_MOTION_DDOT":0},{"OBJECT_NAME":"STARLINK-36815","OBJECT_ID":"2026-057V","EPOCH":"2026-04-07T06:00:02.999808","MEAN_MOTION":15.8077815,"ECCENTRICITY":0.00015175,"INCLINATION":97.2844,"RA_OF_ASC_NODE":221.0763,"ARG_OF_PERICENTER":56.7947,"MEAN_ANOMALY":107.299,"EPHEMERIS_TYPE":0,"CLASSIFICATION_TYPE":"U","NORAD_CAT_ID":68313,"ELEMENT_SET_NO":999,"REV_AT_EPOCH":380,"BSTAR":0.00057056468,"MEAN_MOTION_DOT":0.00110351,"MEAN_MOTION_DDOT":0},{"OBJECT_NAME":"STARLINK-37155","OBJECT_ID":"2026-057W","EPOCH":"2026-04-07T06:00:02.999808","MEAN_MOTION":15.80769037,"ECCENTRICITY":0.00019558,"INCLINATION":97.2846,"RA_OF_ASC_NODE":221.0794,"ARG_OF_PERICENTER":70.7685,"MEAN_ANOMALY":101.8823,"EPHEMERIS_TYPE":0,"CLASSIFICATION_TYPE":"U","NORAD_CAT_ID":68314,"ELEMENT_SET_NO":999,"REV_AT_EPOCH":385,"BSTAR":0.00065743405,"MEAN_MOTION_DOT":0.00127374,"MEAN_MOTION_DDOT":0},{"OBJECT_NAME":"STARLINK-37150","OBJECT_ID":"2026-057X","EPOCH":"2026-04-07T06:00:02.999808","MEAN_MOTION":15.80755695,"ECCENTRICITY":0.00011693,"INCLINATION":97.2845,"RA_OF_ASC_NODE":221.0766,"ARG_OF_PERICENTER":64.7558,"MEAN_ANOMALY":103.6196,"EPHEMERIS_TYPE":0,"CLASSIFICATION_TYPE":"U","NORAD_CAT_ID":68315,"ELEMENT_SET_NO":999,"REV_AT_EPOCH":385,"BSTAR":0.00061216339,"MEAN_MOTION_DOT":0.00118393,"MEAN_MOTION_DDOT":0},{"OBJECT_NAME":"STARLINK-37154","OBJECT_ID":"2026-057Y","EPOCH":"2026-04-07T06:00:02.999808","MEAN_MOTION":15.80811932,"ECCENTRICITY":0.00019262,"INCLINATION":97.2848,"RA_OF_ASC_NODE":221.082,"ARG_OF_PERICENTER":59.8051,"MEAN_ANOMALY":121.3821,"EPHEMERIS_TYPE":0,"CLASSIFICATION_TYPE":"U","NORAD_CAT_ID":68316,"ELEMENT_SET_NO":999,"REV_AT_EPOCH":375,"BSTAR":0.0001510267,"MEAN_MOTION_DOT":0.00028879,"MEAN_MOTION_DDOT":0},{"OBJECT_NAME":"STARLINK-37139","OBJECT_ID":"2026-057Z","EPOCH":"2026-04-07T06:00:02.999808","MEAN_MOTION":15.80819386,"ECCENTRICITY":0.00014864,"INCLINATION":97.2838,"RA_OF_ASC_NODE":221.0799,"ARG_OF_PERICENTER":70.4561,"MEAN_ANOMALY":106.4617,"EPHEMERIS_TYPE":0,"CLASSIFICATION_TYPE":"U","NORAD_CAT_ID":68317,"ELEMENT_SET_NO":999,"REV_AT_EPOCH":360,"BSTAR":7.0672292e-5,"MEAN_MOTION_DOT":0.00013418,"MEAN_MOTION_DDOT":0},{"OBJECT_NAME":"STARLINK-37113","OBJECT_ID":"2026-057AA","EPOCH":"2026-04-07T06:00:02.999808","MEAN_MOTION":15.80731408,"ECCENTRICITY":0.0001579,"INCLINATION":97.285,"RA_OF_ASC_NODE":221.0841,"ARG_OF_PERICENTER":106.4912,"MEAN_ANOMALY":78.9831,"EPHEMERIS_TYPE":0,"CLASSIFICATION_TYPE":"U","NORAD_CAT_ID":68318,"ELEMENT_SET_NO":999,"REV_AT_EPOCH":385,"BSTAR":0.0010036123,"MEAN_MOTION_DOT":0.00195716,"MEAN_MOTION_DDOT":0},{"OBJECT_NAME":"PROGRESS-MS 33","OBJECT_ID":"2026-058A","EPOCH":"2026-04-07T00:53:47.949792","MEAN_MOTION":15.48812043,"ECCENTRICITY":0.00063437,"INCLINATION":51.6332,"RA_OF_ASC_NODE":292.2025,"ARG_OF_PERICENTER":281.0633,"MEAN_ANOMALY":78.9642,"EPHEMERIS_TYPE":0,"CLASSIFICATION_TYPE":"U","NORAD_CAT_ID":68319,"ELEMENT_SET_NO":999,"REV_AT_EPOCH":224,"BSTAR":0.00015734889,"MEAN_MOTION_DOT":8.175e-5,"MEAN_MOTION_DDOT":0},{"OBJECT_NAME":"STARLINK-36987","OBJECT_ID":"2026-059A","EPOCH":"2026-04-07T04:55:02.875296","MEAN_MOTION":15.80889004,"ECCENTRICITY":8.311e-5,"INCLINATION":53.1591,"RA_OF_ASC_NODE":219.9843,"ARG_OF_PERICENTER":21.0842,"MEAN_ANOMALY":339.0215,"EPHEMERIS_TYPE":0,"CLASSIFICATION_TYPE":"U","NORAD_CAT_ID":68321,"ELEMENT_SET_NO":999,"REV_AT_EPOCH":248,"BSTAR":0.00091044327,"MEAN_MOTION_DOT":0.00182985,"MEAN_MOTION_DDOT":0},{"OBJECT_NAME":"STARLINK-37088","OBJECT_ID":"2026-059B","EPOCH":"2026-04-07T04:52:53.027328","MEAN_MOTION":15.80905321,"ECCENTRICITY":0.00010127,"INCLINATION":53.1589,"RA_OF_ASC_NODE":219.9742,"ARG_OF_PERICENTER":50.9186,"MEAN_ANOMALY":309.1926,"EPHEMERIS_TYPE":0,"CLASSIFICATION_TYPE":"U","NORAD_CAT_ID":68322,"ELEMENT_SET_NO":999,"REV_AT_EPOCH":248,"BSTAR":0.00094241068,"MEAN_MOTION_DOT":0.00189727,"MEAN_MOTION_DDOT":0},{"OBJECT_NAME":"STARLINK-36983","OBJECT_ID":"2026-059C","EPOCH":"2026-04-07T04:53:57.823872","MEAN_MOTION":15.80919978,"ECCENTRICITY":9.38e-5,"INCLINATION":53.1591,"RA_OF_ASC_NODE":219.9794,"ARG_OF_PERICENTER":71.2792,"MEAN_ANOMALY":288.8333,"EPHEMERIS_TYPE":0,"CLASSIFICATION_TYPE":"U","NORAD_CAT_ID":68323,"ELEMENT_SET_NO":999,"REV_AT_EPOCH":248,"BSTAR":0.00099237841,"MEAN_MOTION_DOT":0.00200204,"MEAN_MOTION_DDOT":0},{"OBJECT_NAME":"STARLINK-37164","OBJECT_ID":"2026-059D","EPOCH":"2026-04-07T03:20:46.537728","MEAN_MOTION":15.81088501,"ECCENTRICITY":7.039e-5,"INCLINATION":53.1588,"RA_OF_ASC_NODE":220.2859,"ARG_OF_PERICENTER":112.3066,"MEAN_ANOMALY":247.8032,"EPHEMERIS_TYPE":0,"CLASSIFICATION_TYPE":"U","NORAD_CAT_ID":68324,"ELEMENT_SET_NO":999,"REV_AT_EPOCH":360,"BSTAR":0.0027688533,"MEAN_MOTION_DOT":0.00590758,"MEAN_MOTION_DDOT":0},{"OBJECT_NAME":"STARLINK-36309","OBJECT_ID":"2026-059E","EPOCH":"2026-04-07T04:50:43.449792","MEAN_MOTION":15.80914453,"ECCENTRICITY":0.00015138,"INCLINATION":53.1589,"RA_OF_ASC_NODE":219.9645,"ARG_OF_PERICENTER":14.7285,"MEAN_ANOMALY":345.3782,"EPHEMERIS_TYPE":0,"CLASSIFICATION_TYPE":"U","NORAD_CAT_ID":68325,"ELEMENT_SET_NO":999,"REV_AT_EPOCH":248,"BSTAR":0.001049678,"MEAN_MOTION_DOT":0.00212044,"MEAN_MOTION_DDOT":0},{"OBJECT_NAME":"STARLINK-37206","OBJECT_ID":"2026-059F","EPOCH":"2026-04-07T04:49:38.546112","MEAN_MOTION":15.80900574,"ECCENTRICITY":0.00011305,"INCLINATION":53.1589,"RA_OF_ASC_NODE":219.959,"ARG_OF_PERICENTER":61.4881,"MEAN_ANOMALY":298.6255,"EPHEMERIS_TYPE":0,"CLASSIFICATION_TYPE":"U","NORAD_CAT_ID":68326,"ELEMENT_SET_NO":999,"REV_AT_EPOCH":248,"BSTAR":0.00087940609,"MEAN_MOTION_DOT":0.00176687,"MEAN_MOTION_DDOT":0}]
